ASTROCAST-0403          
1 55111U 23001DG  26068.82333059  .00013959  00000+0  51317-3 0  9990
2 55111  97.5604 161.3228 0004771 338.0704  22.0330 15.28004949129377
STARLINK-35991          
1 66861U 25281P   26068.13212077  .00034257  00000+0  12485-2 0  9992
2 66861  43.0010 346.3275 0001081 261.1147  98.9583 15.27583694 16109
