[{"OBJECT_NAME":"ASTROCAST-0403","OBJECT_ID":"2023-001DG","EPOCH":"2026-03-09T19:45:35.762976","MEAN_MOTION":15.28004949,"ECCENTRICITY":0.00047706,"INCLINATION":97.5604,"RA_OF_ASC_NODE":161.3228,"ARG_OF_PERICENTER":338.0704,"MEAN_ANOMALY":22.033,"EPHEMERIS_TYPE":0,"CLASSIFICATION_TYPE":"U","NORAD_CAT_ID":55111,"ELEMENT_SET_NO":999,"REV_AT_EPOCH":12937,"BSTAR":0.0005131719,"MEAN_MOTION_DOT":0.00013959,"MEAN_MOTION_DDOT":0},{"OBJECT_NAME":"STARLINK-35991","OBJECT_ID":"2025-281P","EPOCH":"2026-03-09T03:10:15.234528","MEAN_MOTION":15.27583694,"ECCENTRICITY":0.00010811,"INCLINATION":43.001,"RA_OF_ASC_NODE":346.3275,"ARG_OF_PERICENTER":261.1147,"MEAN_ANOMALY":98.9583,"EPHEMERIS_TYPE":0,"CLASSIFICATION_TYPE":"U","NORAD_CAT_ID":66861,"ELEMENT_SET_NO":999,"REV_AT_EPOCH":1610,"BSTAR":0.0012484966,"MEAN_MOTION_DOT":0.00034257,"MEAN_MOTION_DDOT":0}]
